E-KAGAKU-1              
1 65943U 98067XQ  26071.30203425  .00242002  00000+0  11646-2 0  9991
2 65943  51.6239  43.8096 0005792  91.6608 268.5057 15.81386675 23916
HRC MONOBLOCK CAMERA    
1 66052U 98067XR  26071.96239077  .00057439  00000+0  63184-3 0  9990
2 66052  51.6276  49.0120 0003784 106.7264 253.4145 15.62584835 22906
HTV-X1                  
1 66174U 25241A   26071.96616758  .00010857  00000+0  47039-3 0  9998
2 66174  51.6351  57.2626 0005807 182.7900 177.3045 15.22870559 21455
SZ-21 MODULE            
1 66515U 25246C   26071.68367939  .00040419  00000+0  34395-3 0  9993
2 66515  41.4730 184.9262 0001119 307.7188  52.3552 15.68803443 18544
SHENZHOU-22             
1 66645U 25272A   26071.65904515  .00026654  00000+0  31305-3 0  9993
2 66645  41.4661 190.0925 0006713 290.2953  69.7164 15.60827652269792
SOYUZ-MS 28             
1 66664U 25275A   26071.86901802  .00011348  00000+0  21655-3 0  9997
2 66664  51.6324  56.6367 0007924 186.1410 173.9482 15.48614629556845
DUPLEX                  
1 66906U 98067XS  26071.21883992  .00037736  00000+0  52838-3 0  9999
2 66906  51.6293  56.7987 0002554 123.1889 236.9348 15.56413150 15524
ISS OBJECT XT           
1 66907U 98067XT  26071.32038583  .00181210  00000+0  14377-2 0  9992
2 66907  51.6249  52.2093 0004715  95.5605 264.5930 15.70168045 15591
ISS OBJECT XU           
1 66908U 98067XU  26071.19109037  .00173902  00000+0  13761-2 0  9996
2 66908  51.6251  52.8423 0004849  95.5022 264.6529 15.70253790 15574
SILVERSAT               
1 66909U 98067XV  26071.18756588  .00230471  00000+0  15879-2 0  9992
2 66909  51.6249  52.0679 0005428  93.6368 266.5252 15.73352402 15581
ISS OBJECT XW           
1 66910U 98067XW  26071.95313837  .00158268  00000+0  12885-2 0  9992
2 66910  51.6244  48.9273 0005326 105.6610 254.4975 15.69619162 15697
ISS OBJECT XX           
1 66911U 98067XX  26071.49624840  .00293883  00000+0  17140-2 0  9993
2 66911  51.6223  49.6058 0006975 102.6102 257.5678 15.76985712 15631
